BEIDOU-3S IGSO-1S       
1 40549U 15019A   26157.86275140 -.00000164  00000+0  00000+0 0  9992
2 40549  49.2162 295.5865 0038559 191.1956 171.3970  1.00253110 40971
NAVSTAR 74 (USA 262)    
1 40730U 15033A   26158.24912828 -.00000030  00000+0  00000+0 0  9996
2 40730  53.9903 267.4965 0115033  30.1862 330.4957  2.00556798 79792
BEIDOU-3S M2S           
1 40748U 15037A   26156.51044521 -.00000055  00000+0  00000+0 0  9990
2 40748  54.8818 302.4477 0007883 262.1990  97.7004  1.86232430 73906
BEIDOU-3S M1S           
1 40749U 15037B   26157.79304823 -.00000054  00000+0  00000+0 0  9995
2 40749  54.8774 302.3918 0003632  60.7446 299.2833  1.86254904 73935
GSAT0205 (GALILEO 9)    
1 40889U 15045A   26144.30399159 -.00000014  00000+0  00000+0 0  9994
2 40889  54.9357 222.4171 0006405 263.0112  96.9692  1.67409242 66562
GSAT0206 (GALILEO 10)   
1 40890U 15045B   26157.31220717  .00000041  00000+0  00000+0 0  9993
2 40890  54.9476 221.9050 0001712 337.7692  22.3083  1.70474019 66851
BEIDOU-3S IGSO-2S       
1 40938U 15053A   26157.75858402 -.00000140  00000+0  00000+0 0  9992
2 40938  49.2391 258.9076 0064957 191.9372 173.1063  1.00261954 39252
NAVSTAR 75 (USA 265)    
1 41019U 15062A   26156.31132486 -.00000068  00000+0  00000+0 0  9990
2 41019  56.9514  31.2688 0111581 231.1680 127.8846  2.00567113 77592
GSAT-15                 
1 41028U 15065A   26158.50673877 -.00000243  00000+0  00000+0 0  9995
2 41028   0.0483 113.9152 0004023 324.2740  93.6624  1.00271475 38700
GSAT0209 (GALILEO 12)   
1 41174U 15079A   26156.30703759  .00000019  00000+0  00000+0 0  9991
2 41174  55.8207 101.5878 0005440 339.2511  20.6937  1.70473904 64577
GSAT0208 (GALILEO 11)   
1 41175U 15079B   26157.70048902  .00000024  00000+0  00000+0 0  9995
2 41175  55.8201 101.5466 0005249 332.4167  27.5281  1.70473667 65018
IRNSS-1E                
1 41241U 16003A   26157.65470183 -.00000294  00000+0  00000+0 0  9991
2 41241  33.2123  59.9028 0017895 179.5465   3.0470  1.00270004 37972
NAVSTAR 76 (USA 266)    
1 41328U 16007A   26155.90285179  .00000004  00000+0  00000+0 0  9994
2 41328  55.5169  89.9466 0096310 247.3906 111.5783  2.00552419 75593
COSMOS 2514 [GLONASS-M] 
1 41330U 16008A   26157.96145302 -.00000029  00000+0  00000+0 0  9997
2 41330  65.0283 313.3575 0010880 197.3828 162.5771  2.13102762 80404
BEIDOU-2 IGSO-6         
1 41434U 16021A   26157.01392066 -.00000145  00000+0  00000+0 0  9993
2 41434  60.2097  38.1520 0057221 231.5167  83.2996  1.00261920 37360
IRNSS-1G                
1 41469U 16027A   26158.29992729 -.00000319  00000+0  00000+0 0  9993
2 41469   5.1739  97.7019 0007472 352.4202  43.1435  1.00271155 37082
GSAT0211 (GALILEO 14)   
1 41549U 16030A   26156.65135299  .00000041  00000+0  00000+0 0  9996
2 41549  55.0990 222.0126 0002678 329.1456  30.9257  1.70474112 62473
GSAT0210 (GALILEO 13)   
1 41550U 16030B   26155.73546720  .00000041  00000+0  00000+0 0  9991
2 41550  55.0978 222.0357 0003015 229.1415 130.9222  1.70474170 62452
BEIDOU-2 G7             
1 41586U 16037A   26158.51011880 -.00000338  00000+0  00000+0 0  9990
2 41586   1.6954  69.2366 0007303   1.8565 119.0159  1.00269821  6798
EUTELSAT 117 WEST B     
1 41589U 16038B   26158.46504235  .00000003  00000+0  00000+0 0  9997
2 41589   0.0035 134.3006 0000488 220.3209 311.6472  1.00271344 36568
GSAT0207 (GALILEO 15)   
1 41859U 16069A   26156.60027716  .00000019  00000+0  00000+0 0  9996
2 41859  55.4919 101.4069 0005483 326.6473  33.2866  1.70473771 59205
GSAT0212 (GALILEO 16)   
1 41860U 16069B   26157.04030880  .00000021  00000+0  00000+0 0  9996
2 41860  55.4899 101.3899 0004681 354.1097   5.8552  1.70473908 59468
GSAT0213 (GALILEO 17)   
1 41861U 16069C   26156.23439190  .00000017  00000+0  00000+0 0  9999
2 41861  55.4909 101.4200 0005209 311.1245  48.7972  1.70474348 59318
GSAT0214 (GALILEO 18)   
1 41862U 16069D   26157.55375951  .00000023  00000+0  00000+0 0  9997
2 41862  55.4911 101.3760 0004310 318.2994  41.6400  1.70473962 59468
SES-15                  
1 42709U 17026A   26158.46261566  .00000074  00000+0  00000+0 0  9995
2 42709   0.0209 327.6829 0000634  91.3676 234.2137  1.00270402  7338
QZS-2 (MICHIBIKI-2)     
1 42738U 17028A   26158.29072590 -.00000151  00000+0  00000+0 0  9994
2 42738  39.4423 243.3005 0760597 269.1530 349.1736  1.00286598  7524
QZS-3 (MICHIBIKI-3)     
1 42917U 17048A   26158.44202411 -.00000333  00000+0  00000+0 0  9991
2 42917   0.0573 186.0343 0002743 259.7148  96.2585  1.00270349 32160
COSMOS 2522 [GLONASS-M] 
1 42939U 17055A   26158.26853041  .00000086  00000+0  00000+0 0  9998
2 42939  64.0780 192.2221 0010566 239.6526 120.3101  2.13102039 67769
QZS-4 (MICHIBIKI-4)     
1 42965U 17062A   26158.37145416 -.00000311  00000+0  00000+0 0  9999
2 42965  40.1143 343.6087 0744946 271.5683 272.0991  1.00254196 31707
BEIDOU-3 M1             
1 43001U 17069A   26156.85695868 -.00000038  00000+0  00000+0 0  9996
2 43001  56.6823  63.4582 0010790 323.7021  36.2527  1.86231597 58395
BEIDOU-3 M2             
1 43002U 17069B   26157.86958759 -.00000038  00000+0  00000+0 0  9990
2 43002  56.6831  63.4601 0009370 348.1510  11.8549  1.86231086 58401
